NORAD_CAT_ID,OBJECT_NAME,OBJECT_TYPE,EPOCH,MEAN_MOTION,ECCENTRICITY,INCLINATION,RA_OF_ASC_NODE,ARG_OF_PERICENTER,MEAN_ANOMALY,BSTAR,MEAN_MOTION_DOT,MEAN_MOTION_DDOT,TLE_LINE0,TLE_LINE1,TLE_LINE2,SEMIMAJOR_AXIS,PERIOD,APOGEE,PERIGEE,DECAYED
53856.0,STARLINK-4795,PAYLOAD,2022-10-04 22:00:00,15.73236304,9.73e-05,53.2148,180.1974,105.9787,185.0994,-0.00025134,-0.00035797,0.0,0 STARLINK-4795,1 53856U 22114AQ  22277.91667824 -.00035797  00000-0 -25134-3 0  9991,2 53856  53.2148 180.1974 0000973 105.9787 185.0994 15.73236304  3078,6727.792,91.531,350.311,349.00199999999984,0.0
53856.0,STARLINK-4795,PAYLOAD,2022-10-05 14:00:01,15.731261800000002,0.0001159,53.2144,176.8972,113.8196,355.1956,0.00016136,0.00022014,0.0,0 STARLINK-4795,1 53856U 22114AQ  22278.58335648  .00022014  00000-0  16136-3 0  9999,2 53856  53.2144 176.8972 0001159 113.8196 355.1956 15.73126180  3183,6728.106,91.537,350.75,349.191,0.0
53856.0,STARLINK-4795,PAYLOAD,2022-10-05 22:00:00,15.73114192,0.0001109,53.2148,175.2493,110.4198,87.3715,0.00085993,0.00121375,0.0,0 STARLINK-4795,1 53856U 22114AQ  22278.91667824  .00121375  00000-0  85993-3 0  9997,2 53856  53.2148 175.2493 0001109 110.4198  87.3715 15.73114192  1307,6728.14,91.538,350.751,349.259,0.0
53856.0,STARLINK-4795,PAYLOAD,2022-10-06 14:00:01,15.73192084,0.0001127999999999,53.2152,171.949,115.6992,259.8827,0.00029969,0.00041634,0.0,0 STARLINK-4795,1 53856U 22114AQ  22279.58334491  .00041634  00000-0  29969-3 0  9992,2 53856  53.2152 171.9490 0001128 115.6992 259.8827 15.73192084  1308,6727.918000000002,91.534,350.542,349.024,0.0
53856.0,STARLINK-4795,PAYLOAD,2022-10-06 22:42:55,15.73208653,0.0001273,53.2162,170.1552,103.8873,169.4607,-0.0001125,-0.00016383,0.0,0 STARLINK-4795,1 53856U 22114AQ  22279.94646991 -.00016383  00000-0 -11250-3 0  9992,2 53856  53.2162 170.1552 0001273 103.8873 169.4607 15.73208653  1309,6727.871,91.533,350.592,348.879,0.0
53856.0,STARLINK-4795,PAYLOAD,2022-10-07 00:00:00,15.73203154,0.0001267,53.2164,169.8909,102.0824,114.6781,-8.222299999999999e-05,-0.00012144,0.0,0 STARLINK-4795,1 53856U 22114AQ  22280.00001157 -.00012144  00000-0 -82223-4 0  9990,2 53856  53.2164 169.8909 0001267 102.0824 114.6781 15.73203154  3401,6727.886,91.533,350.60400000000016,348.899,0.0
53856.0,STARLINK-4795,PAYLOAD,2022-10-07 06:00:00,15.7323236,0.0001032999999999,53.2148,168.6517,105.854,87.6591,-5.815e-05,-8.783e-05,0.0,0 STARLINK-4795,1 53856U 22114AQ  22280.25001157 -.00008783  00000-0 -58150-4 0  9993,2 53856  53.2148 168.6517 0001033 105.8540  87.6591 15.73232360  3445,6727.803000000001,91.531,350.36300000000006,348.973,0.0
53856.0,STARLINK-4795,PAYLOAD,2022-10-07 14:00:01,15.73233015,0.0001001,53.2148,167.0003,127.3535,155.1244,-6.158699999999999e-05,-9.265e-05,0.0,0 STARLINK-4795,1 53856U 22114AQ  22280.58334491 -.00009265  00000-0 -61587-4 0  9993,2 53856  53.2148 167.0003 0001001 127.3535 155.1244 15.73233015  1303,6727.801,91.531,350.34,348.99300000000005,0.0
53856.0,STARLINK-4795,PAYLOAD,2022-10-07 22:00:00,15.73225466,0.0001084,53.2149,165.3525,115.2811,256.1563,-0.00068655,-0.00095982,0.0,0 STARLINK-4795,1 53856U 22114AQ  22280.91667824 -.00095982  00000-0 -68655-3 0  9992,2 53856  53.2149 165.3525 0001084 115.2811 256.1563 15.73225466  1305,6727.823,91.532,350.417,348.958,0.0
53856.0,STARLINK-4795,PAYLOAD,2022-10-08 06:00:00,15.73186146,0.0001281,53.2148,163.7032,106.0528,354.2803,-0.00024226,-0.0003446,0.0,0 STARLINK-4795,1 53856U 22114AQ  22281.25001157 -.00034460  00000-0 -24226-3 0  9991,2 53856  53.2148 163.7032 0001281 106.0528 354.2803 15.73186146  3604,6727.935,91.534,350.662,348.93800000000016,0.0
53856.0,STARLINK-4795,PAYLOAD,2022-10-08 14:00:01,15.73103203,0.0001455,53.215,162.0518,115.4925,73.7427,0.00093776,0.00132533,0.0,0 STARLINK-4795,1 53856U 22114AQ  22281.58334491  .00132533  00000-0  93776-3 0  9991,2 53856  53.2150 162.0518 0001455 115.4925  73.7427 15.73103203  1309,6728.170999999999,91.539,351.015,349.057,0.0
53856.0,STARLINK-4795,PAYLOAD,2022-10-08 22:00:00,15.73213472,0.0001659,53.2173,160.4076,118.2286,159.8998,-0.00010325,-0.00015094,0.0,0 STARLINK-4795,1 53856U 22114AQ  22281.91667824 -.00015094  00000-0 -10325-3 0  9990,2 53856  53.2173 160.4076 0001659 118.2286 159.8998 15.73213472  3707,6727.857,91.532,350.838,348.606,0.0
53856.0,STARLINK-4795,PAYLOAD,2022-10-09 06:00:00,15.732428,0.0001195,53.2145,158.7546,106.9865,260.0879,-0.00016768,-0.00024128,0.0,0 STARLINK-4795,1 53856U 22114AQ  22282.25001157 -.00024128  00000-0 -16768-3 0  9994,2 53856  53.2145 158.7546 0001195 106.9865 260.0879 15.73242800  3755,6727.773,91.531,350.44199999999995,348.834,0.0
53856.0,STARLINK-4795,PAYLOAD,2022-10-09 14:00:01,15.73221225,0.0001457,53.2145,157.1033,118.2109,337.8445,8.865799999999999e-05,0.00011851,0.0,0 STARLINK-4795,1 53856U 22114AQ  22282.58334491  .00011851  00000-0  88658-4 0  9995,2 53856  53.2145 157.1033 0001457 118.2109 337.8445 15.73221225  1306,6727.835,91.532,350.68,348.719,0.0
53856.0,STARLINK-4795,PAYLOAD,2022-10-09 22:00:00,15.73207758,0.0001373,53.2143,155.4555,110.7345,74.2868,-1.8681e-06,-8.82e-06,0.0,0 STARLINK-4795,1 53856U 22114AQ  22282.91667824 -.00000882  00000-0 -18681-5 0  9995,2 53856  53.2143 155.4555 0001373 110.7345  74.2868 15.73207758  1306,6727.873000000001,91.533,350.662,348.814,0.0
53856.0,STARLINK-4795,PAYLOAD,2022-10-10 08:00:01,15.73216271,0.0001313,53.2154,153.3939,115.1347,271.0615,6.6435e-05,8.72e-05,0.0,0 STARLINK-4795,1 53856U 22114AQ  22283.33334491  .00008720  00000-0  66435-4 0  9999,2 53856  53.2154 153.3939 0001313 115.1347 271.0615 15.73216271  3923,6727.849,91.532,350.597,348.83,0.0
53856.0,STARLINK-4795,PAYLOAD,2022-10-10 14:00:01,15.73216413,0.0001406,53.2146,152.1546,122.9351,239.9862,0.00039596,0.00055357,0.0,0 STARLINK-4795,1 53856U 22114AQ  22283.58334491  .00055357  00000-0  39596-3 0  9991,2 53856  53.2146 152.1546 0001406 122.9351 239.9862 15.73216413  1304,6727.848000000001,91.532,350.659,348.767,0.0
53856.0,STARLINK-4795,PAYLOAD,2022-10-10 22:00:01,15.73370911,0.0001247,53.2161,150.5089,116.8954,335.0489,-0.0039350999999999,-0.00523668,0.0,0 STARLINK-4795,1 53856U 22114AQ  22283.91668981 -.00523668  00000-0 -39351-2 0  9997,2 53856  53.2161 150.5089 0001247 116.8954 335.0489 15.73370911  1306,6727.408,91.523,350.112,348.434,0.0
53856.0,STARLINK-4795,PAYLOAD,2022-10-11 06:00:00,15.73211143,0.0001159,53.2151,148.8586,108.2798,72.4911,-0.00084937,-0.00118217,0.0,0 STARLINK-4795,1 53856U 22114AQ  22284.25001157 -.00118217  00000-0 -84937-3 0  9992,2 53856  53.2151 148.8586 0001159 108.2798  72.4911 15.73211143  4070,6727.863,91.533,350.5080000000001,348.949,0.0
53856.0,STARLINK-4795,PAYLOAD,2022-10-11 14:00:01,15.73057498,0.0001468,53.2168,147.2094,113.2302,156.4513,0.0016535,0.00236646,0.0,0 STARLINK-4795,1 53856U 22114AQ  22284.58334491  .00236646  00000-0  16535-2 0  9991,2 53856  53.2168 147.2094 0001468 113.2302 156.4513 15.73057498  4123,6728.301,91.541,351.154,349.17900000000014,0.0
53856.0,STARLINK-4795,PAYLOAD,2022-10-11 22:00:00,15.73211677,0.0001189,53.2156,145.5584,115.8175,242.6881,-0.00038008,-0.00053648,0.0,0 STARLINK-4795,1 53856U 22114AQ  22284.91667824 -.00053648  00000-0 -38008-3 0  9998,2 53856  53.2156 145.5584 0001189 115.8175 242.6881 15.73211677  1305,6727.861999999999,91.533,350.527,348.927,0.0
53856.0,STARLINK-4795,PAYLOAD,2022-10-12 14:00:01,15.73357912,0.0001093,53.2167,142.2603,121.4964,54.8112,-0.0013974,-0.0019359,0.0,0 STARLINK-4795,1 53856U 22114AQ  22285.58334491 -.00193590  00000-0 -13974-2 0  9998,2 53856  53.2167 142.2603 0001093 121.4964  54.8112 15.73357912  4289,6727.445,91.524,350.045,348.575,0.0
53856.0,STARLINK-4795,PAYLOAD,2022-10-12 22:00:00,15.73204307,9.92e-05,53.2175,140.6142,112.6425,152.701,-2.5207e-06,-9.73e-06,0.0,0 STARLINK-4795,1 53856U 22114AQ  22285.91667824 -.00000973  00000-0 -25207-5 0  9991,2 53856  53.2175 140.6142 0000992 112.6425 152.7010 15.73204307  4339,6727.8830000000025,91.533,350.415,349.08,0.0
53856.0,STARLINK-4795,PAYLOAD,2022-10-13 14:00:01,15.73442074,0.0001383,53.2169,137.312,111.328,331.7495,-0.0024394,-0.00333215,0.0,0 STARLINK-4795,1 53856U 22114AQ  22286.58334491 -.00333215  00000-0 -24394-2 0  9997,2 53856  53.2169 137.3120 0001383 111.3280 331.7495 15.73442074  1306,6727.205,91.519,350.0,348.14,0.0
53856.0,STARLINK-4795,PAYLOAD,2022-10-13 22:00:00,15.7324271,0.0001026,53.2174,135.6649,111.4405,60.6884,-0.00044886,-0.00063255,0.0,0 STARLINK-4795,1 53856U 22114AQ  22286.91667824 -.00063255  00000-0 -44886-3 0  9996,2 53856  53.2174 135.6649 0001026 111.4405  60.6884 15.73242710  1308,6727.773,91.531,350.329,348.9480000000001,0.0
53856.0,STARLINK-4795,PAYLOAD,2022-10-14 08:00:01,15.73278079,0.0001379,53.2167,133.6004,112.7695,260.6717,-0.0018425999999999,-0.00252456,0.0,0 STARLINK-4795,1 53856U 22114AQ  22287.33335648 -.00252456  00000-0 -18426-2 0  9992,2 53856  53.2167 133.6004 0001379 112.7695 260.6717 15.73278079  4553,6727.6730000000025,91.529,350.465,348.61,0.0
53856.0,STARLINK-4795,PAYLOAD,2022-10-14 14:00:01,15.73083858,0.000155,53.217,132.3634,108.6159,241.4606,0.0013631,0.00194201,0.0,0 STARLINK-4795,1 53856U 22114AQ  22287.58334491  .00194201  00000-0  13631-2 0  9998,2 53856  53.2170 132.3634 0001550 108.6159 241.4606 15.73083858  1305,6728.226,91.54,351.134,349.048,0.0
53856.0,STARLINK-4795,PAYLOAD,2022-10-14 16:00:00,15.73194405,0.0001567,53.2172,131.952,109.7299,352.5234,0.00012646,0.0001716,0.0,0 STARLINK-4795,1 53856U 22114AQ  22287.66667824  .00017160  00000-0  12646-3 0  9990,2 53856  53.2172 131.9520 0001567 109.7299 352.5234 15.73194405  4610,6727.911,91.534,350.83,348.722,0.0
53856.0,STARLINK-4795,PAYLOAD,2022-10-14 20:00:01,15.73204011,0.0001541,53.2173,131.1289,106.8001,219.9158,3.6146e-06,-1.13e-06,0.0,0 STARLINK-4795,1 53856U 22114AQ  22287.83334491 -.00000113  00000-0  36146-5 0  9994,2 53856  53.2173 131.1289 0001541 106.8001 219.9158 15.73204011  1305,6727.884,91.533,350.786,348.712,0.0
